OBJECT_NAME,OBJECT_ID,EPOCH,MEAN_MOTION,ECCENTRICITY,INCLINATION,RA_OF_ASC_NODE,ARG_OF_PERICENTER,MEAN_ANOMALY,EPHEMERIS_TYPE,CLASSIFICATION_TYPE,NORAD_CAT_ID,ELEMENT_SET_NO,REV_AT_EPOCH,BSTAR,MEAN_MOTION_DOT,MEAN_MOTION_DDOT
IRIDIUM 135,2017-083A,2026-07-18T06:26:23.152128,14.34217823,.00021097,86.3983,309.0236,95.3955,264.7482,0,U,43070,999,44860,-.3281544E-5,.11E-6,0
IRIDIUM 138,2017-083B,2026-07-18T07:02:54.977568,14.34213859,.00017628,86.4005,308.7129,102.7020,257.4373,0,U,43071,999,44859,.43471835E-4,.142E-5,0
IRIDIUM 116,2017-083C,2026-07-18T12:59:07.149408,14.34217048,.00025309,86.3986,308.8948,99.7048,260.4434,0,U,43072,999,44866,.36524797E-4,.122E-5,0
IRIDIUM 130,2017-083D,2026-07-18T07:12:03.305664,14.34218687,.0002325,86.3994,309.2742,100.4244,259.7214,0,U,43073,999,44857,.43631597E-4,.142E-5,0
IRIDIUM 151,2017-083E,2026-07-18T06:35:31.201152,14.34218600,.00023501,86.3983,309.0653,96.8836,263.2627,0,U,43074,999,44859,.29952764E-4,.104E-5,0
IRIDIUM 134,2017-083F,2026-07-18T07:30:19.191168,14.34217871,.00022521,86.3990,309.0574,96.4576,263.6876,0,U,43075,999,44856,.8207312E-5,.43E-6,0
IRIDIUM 137,2017-083G,2026-07-18T07:48:35.255520,14.34217723,.00025668,86.3987,309.1458,92.1282,268.0208,0,U,43076,999,44863,-.7323592E-5,-.1E-7,0
IRIDIUM 141,2017-083H,2026-07-18T14:21:19.158624,14.34217766,.00021961,86.3986,308.8605,94.3317,265.8129,0,U,43077,999,44867,.12385308E-4,.54E-6,0
IRIDIUM 153,2017-083J,2026-07-18T06:30:35.399520,14.34217772,.00021522,86.3958,277.4758,95.8729,264.2712,0,U,43078,999,44973,.5686372E-5,.36E-6,0
IRIDIUM 131,2017-083K,2026-07-18T14:03:03.174624,14.34217562,.00021017,86.3987,309.0539,93.9772,266.1664,0,U,43079,999,44860,-.1656803E-4,-.27E-6,0
IRIDIUM 144,2018-030A,2026-07-18T06:39:43.382016,14.34217136,.00023176,86.3958,277.4017,96.7399,263.4061,0,U,43249,999,43459,.23788078E-4,.86E-6,0
IRIDIUM 149,2018-030B,2026-07-18T15:11:11.400576,14.34217714,.00021352,86.3953,277.2196,94.0242,266.1198,0,U,43250,999,43466,-.757274E-6,.18E-6,0
IRIDIUM 157,2018-030C,2026-07-18T12:17:39.482592,14.34218757,.00022854,86.3957,277.3240,95.0922,265.0535,0,U,43251,999,43462,.38304198E-4,.127E-5,0
IRIDIUM 140,2018-030D,2026-07-18T07:43:39.582624,14.34218379,.00022545,86.3957,277.4161,95.9171,264.2282,0,U,43252,999,43465,.40861393E-4,.134E-5,0
IRIDIUM 145,2018-030E,2026-07-18T07:25:23.456928,14.34217567,.0002573,86.3956,277.3937,98.6292,261.5195,0,U,43253,999,43458,.195198E-4,.74E-6,0
IRIDIUM 146,2018-030F,2026-07-18T15:20:19.466016,14.34217556,.00023873,86.3955,277.2678,96.2568,263.8900,0,U,43254,999,43464,.6343739E-5,.38E-6,0
IRIDIUM 148,2018-030G,2026-07-18T06:12:19.557216,14.34218775,.00023403,86.3957,277.4704,93.1726,266.9738,0,U,43255,999,43462,.42600423E-4,.139E-5,0
IRIDIUM 142,2018-030H,2026-07-18T12:08:31.435296,14.34217724,.0002337,86.3952,277.2546,95.9725,264.1737,0,U,43256,999,43462,-.829532E-6,.17E-6,0
IRIDIUM 150,2018-030J,2026-07-18T06:21:27.372096,14.34217554,.00023074,86.3957,277.4731,96.3279,263.8179,0,U,43257,999,43461,.35213161E-4,.118E-5,0
IRIDIUM 143,2018-030K,2026-07-18T05:54:03.485088,14.34218114,.00023699,86.3960,277.5748,96.7609,263.3856,0,U,43258,999,43454,.25674411E-4,.92E-6,0
IRIDIUM 161,2018-047C,2026-07-18T03:50:13.647552,14.43276571,.00022068,86.4458,75.5179,80.7176,279.4274,0,U,43478,999,42960,.38959728E-4,.151E-5,0
IRIDIUM 152,2018-047D,2026-07-18T15:17:34.250208,14.34217539,.00020151,86.3931,75.1791,83.5383,276.6042,0,U,43479,999,42699,-.47019805E-4,-.112E-5,0
IRIDIUM 147,2018-047E,2026-07-18T03:43:26.275872,14.34217576,.00022915,86.3935,75.3868,88.2487,271.8972,0,U,43480,999,42692,.15504344E-4,.63E-6,0
IRIDIUM 110,2018-047F,2026-07-18T03:52:33.953376,14.34219246,.00020586,86.3938,75.4769,77.7059,282.4367,0,U,43481,999,42691,.38172665E-4,.127E-5,0
IRIDIUM 162,2018-047G,2026-07-18T03:41:09.291264,14.43279383,.00021963,86.4457,75.4110,87.0114,273.1338,0,U,43482,999,42959,.44093483E-4,.169E-5,0
IRIDIUM 160,2018-061A,2026-07-18T02:34:34.430880,14.34217724,.00022179,86.3939,43.8632,86.7202,273.4247,0,U,43569,999,41780,.34046386E-4,.115E-5,0
IRIDIUM 166,2018-061B,2026-07-18T13:13:54.490368,14.34217675,.00022872,86.3937,43.6276,89.7724,270.3734,0,U,43570,999,41789,-.1782786E-5,.15E-6,0
IRIDIUM 158,2018-061C,2026-07-18T12:28:14.483712,14.34217136,.00021056,86.3939,43.6504,89.1627,270.9810,0,U,43571,999,41785,.2240921E-5,.26E-6,0
IRIDIUM 165,2018-061D,2026-07-18T13:04:46.542432,14.34217727,.00022929,86.3940,43.6873,89.8809,270.2649,0,U,43572,999,41788,.13649121E-4,.58E-6,0
IRIDIUM 155,2018-061E,2026-07-18T12:09:58.472928,14.34217569,.00021436,86.3935,43.5703,90.7534,269.3907,0,U,43573,999,41784,.126508E-5,.23E-6,0
