IRIDIUM 135             
1 43070U 17083A   26199.26832352  .00000011  00000+0 -32815-5 0  9997
2 43070  86.3983 309.0236 0002109  95.3955 264.7482 14.34217823448604
IRIDIUM 138             
1 43071U 17083B   26199.29369187  .00000142  00000+0  43472-4 0  9996
2 43071  86.4005 308.7129 0001762 102.7020 257.4373 14.34213859448599
IRIDIUM 116             
1 43072U 17083C   26199.54105497  .00000122  00000+0  36525-4 0  9996
2 43072  86.3986 308.8948 0002530  99.7048 260.4434 14.34217048448660
IRIDIUM 130             
1 43073U 17083D   26199.30003826  .00000142  00000+0  43632-4 0  9993
2 43073  86.3994 309.2742 0002325 100.4244 259.7214 14.34218687448574
IRIDIUM 151             
1 43074U 17083E   26199.27466668  .00000104  00000+0  29953-4 0  9995
2 43074  86.3983 309.0653 0002350  96.8836 263.2627 14.34218600448590
IRIDIUM 134             
1 43075U 17083F   26199.31272212  .00000043  00000+0  82073-5 0  9996
2 43075  86.3990 309.0574 0002252  96.4576 263.6876 14.34217871448565
IRIDIUM 137             
1 43076U 17083G   26199.32540805 -.00000001  00000+0 -73236-5 0  9991
2 43076  86.3987 309.1458 0002566  92.1282 268.0208 14.34217723448631
IRIDIUM 141             
1 43077U 17083H   26199.59813841  .00000054  00000+0  12385-4 0  9997
2 43077  86.3986 308.8605 0002196  94.3317 265.8129 14.34217766448671
IRIDIUM 153             
1 43078U 17083J   26199.27124305  .00000036  00000+0  56864-5 0  9994
2 43078  86.3958 277.4758 0002152  95.8729 264.2712 14.34217772449732
IRIDIUM 131             
1 43079U 17083K   26199.58545341 -.00000027  00000+0 -16568-4 0  9994
2 43079  86.3987 309.0539 0002101  93.9772 266.1664 14.34217562448604
IRIDIUM 144             
1 43249U 18030A   26199.27758544  .00000086  00000+0  23788-4 0  9998
2 43249  86.3958 277.4017 0002317  96.7399 263.4061 14.34217136434596
IRIDIUM 149             
1 43250U 18030B   26199.63277084  .00000018  00000+0 -75727-6 0  9993
2 43250  86.3953 277.2196 0002135  94.0242 266.1198 14.34217714434666
IRIDIUM 157             
1 43251U 18030C   26199.51226253  .00000127  00000+0  38304-4 0  9991
2 43251  86.3957 277.3240 0002285  95.0922 265.0535 14.34218757434621
IRIDIUM 140             
1 43252U 18030D   26199.32198591  .00000134  00000+0  40861-4 0  9993
2 43252  86.3957 277.4161 0002254  95.9171 264.2282 14.34218379434659
IRIDIUM 145             
1 43253U 18030E   26199.30929927  .00000074  00000+0  19520-4 0  9998
2 43253  86.3956 277.3937 0002573  98.6292 261.5195 14.34217567434580
IRIDIUM 146             
1 43254U 18030F   26199.63911419  .00000038  00000+0  63437-5 0  9999
2 43254  86.3955 277.2678 0002387  96.2568 263.8900 14.34217556434648
IRIDIUM 148             
1 43255U 18030G   26199.25855969  .00000139  00000+0  42600-4 0  9995
2 43255  86.3957 277.4704 0002340  93.1726 266.9738 14.34218775434629
IRIDIUM 142             
1 43256U 18030H   26199.50591939  .00000017  00000+0 -82953-6 0  9991
2 43256  86.3952 277.2546 0002337  95.9725 264.1737 14.34217724434624
IRIDIUM 150             
1 43257U 18030J   26199.26490014  .00000118  00000+0  35213-4 0  9993
2 43257  86.3957 277.4731 0002307  96.3279 263.8179 14.34217554434610
IRIDIUM 143             
1 43258U 18030K   26199.24587367  .00000092  00000+0  25674-4 0  9991
2 43258  86.3960 277.5748 0002369  96.7609 263.3856 14.34218114434545
IRIDIUM 161             
1 43478U 18047C   26199.15988018  .00000151  00000+0  38960-4 0  9999
2 43478  86.4458  75.5179 0002206  80.7176 279.4274 14.43276571429602
IRIDIUM 152             
1 43479U 18047D   26199.63720197 -.00000112  00000+0 -47020-4 0  9991
2 43479  86.3931  75.1791 0002015  83.5383 276.6042 14.34217539426993
IRIDIUM 147             
1 43480U 18047E   26199.15516523  .00000063  00000+0  15504-4 0  9991
2 43480  86.3935  75.3868 0002291  88.2487 271.8972 14.34217576426922
IRIDIUM 110             
1 43481U 18047F   26199.16150409  .00000127  00000+0  38173-4 0  9998
2 43481  86.3938  75.4769 0002058  77.7059 282.4367 14.34219246426917
IRIDIUM 162             
1 43482U 18047G   26199.15357976  .00000169  00000+0  44093-4 0  9990
2 43482  86.4457  75.4110 0002196  87.0114 273.1338 14.43279383429594
IRIDIUM 160             
1 43569U 18061A   26199.10734295  .00000115  00000+0  34046-4 0  9998
2 43569  86.3939  43.8632 0002217  86.7202 273.4247 14.34217724417804
IRIDIUM 166             
1 43570U 18061B   26199.55132512  .00000015  00000+0 -17828-5 0  9993
2 43570  86.3937  43.6276 0002287  89.7724 270.3734 14.34217675417896
IRIDIUM 158             
1 43571U 18061C   26199.51961208  .00000026  00000+0  22409-5 0  9994
2 43571  86.3939  43.6504 0002105  89.1627 270.9810 14.34217136417857
IRIDIUM 165             
1 43572U 18061D   26199.54498313  .00000058  00000+0  13649-4 0  9990
2 43572  86.3940  43.6873 0002292  89.8809 270.2649 14.34217727417887
IRIDIUM 155             
1 43573U 18061E   26199.50692677  .00000023  00000+0  12651-5 0  9991
2 43573  86.3935  43.5703 0002143  90.7534 269.3907 14.34217569417840
